STARLINK-2268_new
1 18030C 21024BF  21326.12935310  .00006218  00000-0  41667-3 0  3260
2 18030  53.0522 178.1471 0001965  76.4936 147.6379 15.06387241    14
STARLINK-2268_old
1 28030C 21024BF  21325.13318031  .00007295  00000-0  48890-3 0  3255
2 28030  53.0523 182.6192 0001962  74.4551 144.4440 15.06381065    15
